CHINASAT 6D             
1 52255U 22038A   22131.93545646 -.00000344  00000+0  00000+0 0  9995
2 52255   0.0295 282.3901 0001392 266.0469 143.1085  1.00273514   421
CZ-3B R/B               
1 52256U 22038B   22131.49462787  .00030987  16131-5  23361-2 0  9992
2 52256  28.5267  10.5730 7201721 195.2952 118.3765  2.41025139   638
DAQI 1                  
1 52257U 22039A   22131.95014661  .00000255  00000+0  65822-4 0  9996
2 52257  98.1357  73.2628 0001700 158.9411 201.1860 14.57674835  3811
CZ-4C R/B               
1 52258U 22039B   22131.85059479  .00001700  00000+0  15028-3 0  9990
2 52258  98.1666  74.6310 0138930 337.1327  22.3748 14.90741268  3888
SZ-13 MODULE            
1 52260U 21092C   22131.57678349  .00022032  00000+0  21331-3 0  9998
2 52260  41.4811  80.5737 0010505 227.0628 132.9332 15.65801128  3614
STARLINK-3810           
1 52261U 22041A   22131.91667824 -.00718079  00000+0 -60366-2 0  9993
2 52261  53.2170 274.7107 0001495  36.3807  42.2131 15.71291675  4416
STARLINK-3761           
1 52262U 22041B   22131.91667824 -.00718025  00000+0 -60385-2 0  9996
2 52262  53.2170 274.7102 0001472  37.1401  40.2211 15.71282497  4415
STARLINK-3786           
1 52263U 22041C   22131.91667824 -.00718029  00000+0 -60372-2 0  9997
2 52263  53.2170 274.7102 0001565  34.5017  43.4759 15.71286995  4401
STARLINK-3795           
1 52264U 22041D   22131.91667824 -.00718229  00000+0 -60371-2 0  9999
2 52264  53.2170 274.7099 0001323  45.5366  33.6734 15.71296421  4407
STARLINK-3740           
1 52265U 22041E   22131.91667824 -.00718056  00000+0 -60340-2 0  9994
2 52265  53.2170 274.7108 0001506  36.2483  43.5778 15.71300948  4418
STARLINK-3739           
1 52266U 22041F   22131.91667824 -.00718077  00000+0 -60330-2 0  9997
2 52266  53.2170 274.7105 0001503  36.9412  43.5009 15.71305620  4411
STARLINK-3748           
1 52267U 22041G   22131.91667824 -.00718034  00000+0 -60313-2 0  9992
2 52267  53.2170 274.7113 0001563  34.7535  46.3046 15.71310232  4416
STARLINK-3746           
1 52268U 22041H   22131.91667824 -.00717995  00000+0 -60273-2 0  9993
2 52268  53.2171 274.7114 0001611  33.2846  49.6213 15.71324112  4416
STARLINK-3791           
1 52269U 22041J   22131.91667824 -.00718001  00000+0 -60297-2 0  9999
2 52269  53.2171 274.7114 0001625  32.1489  49.5252 15.71314828  4418
STARLINK-3804           
1 52270U 22041K   22131.91667824 -.00718058  00000+0 -60279-2 0  9993
2 52270  53.2171 274.7099 0001510  36.9392  47.1613 15.71324834  4402
STARLINK-3788           
1 52271U 22041L   22131.91667824 -.00718056  00000+0 -60292-2 0  9997
2 52271  53.2171 274.7116 0001531  35.5746  46.7155 15.71319508  4413
STARLINK-3781           
1 52272U 22041M   22131.91667824 -.00718080  00000+0 -60258-2 0  9997
2 52272  53.2171 274.7088 0001489  37.5167  47.8155 15.71333995  4411
STARLINK-3782           
1 52273U 22041N   22131.91667824 -.00028447  00000+0 -19859-3 0  9991
2 52273  53.2135 274.7008 0002067  29.5311  58.4205 15.73238973  4415
STARLINK-3790           
1 52274U 22041P   22131.91667824 -.00718057  00000+0 -60221-2 0  9993
2 52274  53.2171 274.7068 0001495  37.0890  50.0906 15.71347612  4417
STARLINK-3784           
1 52275U 22041Q   22131.91667824 -.00718109  00000+0 -60272-2 0  9998
2 52275  53.2171 274.7093 0001511  37.1067  47.6097 15.71329384  4400
STARLINK-3778           
1 52276U 22041R   22131.91667824 -.00717969  00000+0 -60187-2 0  9997
2 52276  53.2171 274.7055 0001628  33.0842  55.3267 15.71356702  4414
STARLINK-3787           
1 52277U 22041S   22131.91667824 -.00718008  00000+0 -60238-2 0  9990
2 52277  53.2171 274.7081 0001591  33.9830  51.9652 15.71338449  4417
STARLINK-3780           
1 52278U 22041T   22131.91667824 -.00726676  00000+0 -60953-2 0  9995
2 52278  53.2171 274.7057 0001746 358.0584  90.9661 15.71366570  4419
STARLINK-3686           
1 52279U 22041U   22131.91667824 -.00719319  00000+0 -60345-2 0  9997
2 52279  53.2171 274.7079 0001519  30.9411  55.6224 15.71343903  4415
STARLINK-3764           
1 52280U 22041V   22131.91667824 -.00717946  00000+0 -60136-2 0  9991
2 52280  53.2171 274.7062 0001706  31.1175  59.7551 15.71375242  1301
STARLINK-3779           
1 52281U 22041W   22131.91667824 -.00718061  00000+0 -60209-2 0  9992
2 52281  53.2171 274.7068 0001525  35.8957  51.8996 15.71352224  1307
STARLINK-3783           
1 52282U 22041X   22131.91667824  .00047176  00000+0  33915-3 0  9998
2 52282  53.2140 274.6830 0002057  27.0886  69.1240 15.73165061  1302
STARLINK-3789           
1 52283U 22041Y   22131.91667824 -.00718001  00000+0 -60167-2 0  9991
2 52283  53.2171 274.7062 0001589  34.0086  55.6332 15.71365998  1305
STARLINK-3561           
1 52284U 22041Z   22131.91667824  .00071456  00000+0  50955-3 0  9991
2 52284  53.2138 274.6800 0002172  29.2474  68.0224 15.73183779  1309
STARLINK-3775           
1 52285U 22041AA  22131.91667824 -.00718025  00000+0 -60159-2 0  9990
2 52285  53.2171 274.7063 0001505  37.2739  52.9834 15.71370663  1308
STARLINK-3802           
1 52286U 22041AB  22131.91667824 -.00036201  00000+0 -25405-3 0  9996
2 52286  53.2142 274.6776 0002002  26.4620  72.2156 15.73249643  1306
STARLINK-3822           
1 52287U 22041AC  22131.91667824 -.00719040  00000+0 -60225-2 0  9994
2 52287  53.2171 274.7066 0001561  31.1370  60.3506 15.71380579  4410
STARLINK-3776           
1 52288U 22041AD  22131.91667824  .00069791  00000+0  49734-3 0  9997
2 52288  53.2143 274.6762 0001959  25.9215  73.3614 15.73209405  4416
STARLINK-3751           
1 52289U 22041AE  22131.91667824  .00016676  00000+0  12274-3 0  9991
2 52289  53.2143 274.6819 0002326  25.9388  70.8171 15.73249429  1305
STARLINK-3772           
1 52290U 22041AF  22131.91667824  .00010458  00000+0  78676-4 0  9994
2 52290  53.2137 274.6724 0002366  25.4754  75.4364 15.73249437  1305
STARLINK-3773           
1 52291U 22041AG  22131.91667824  .00059917  00000+0  42784-3 0  9998
2 52291  53.2143 274.6790 0001984  25.2935  72.7404 15.73223639  1301
STARLINK-3753           
1 52292U 22041AH  22131.91667824 -.00007304  00000+0 -47605-4 0  9992
2 52292  53.2142 274.6695 0002116  18.4441  83.8612 15.73224510  1302
STARLINK-3771           
1 52293U 22041AJ  22131.91667824  .00045656  00000+0  32765-3 0  9993
2 52293  53.2142 274.6758 0002109  24.2098  75.5659 15.73220569  1307
STARLINK-3777           
1 52294U 22041AK  22131.91667824  .00080517  00000+0  57239-3 0  9992
2 52294  53.2143 274.6689 0002009  17.6665  85.1308 15.73208572  1305
STARLINK-3765           
1 52295U 22041AL  22131.91667824  .00046434  00000+0  33295-3 0  9999
2 52295  53.2141 274.6742 0002317  23.1245  77.1762 15.73232507  4417
STARLINK-3766           
1 52296U 22041AM  22131.91667824  .00048602  00000+0  34866-3 0  9994
2 52296  53.2145 274.6656 0002145  26.5193  78.0423 15.73201751  1300
STARLINK-3758           
1 52297U 22041AN  22131.91667824  .00009677  00000+0  73143-4 0  9996
2 52297  53.2144 274.6720 0002224  25.3999  76.1151 15.73246907  1300
STARLINK-3760           
1 52298U 22041AP  22131.91667824  .00038771  00000+0  27922-3 0  9997
2 52298  53.2146 274.6640 0002147  22.4402  82.6922 15.73212998  1306
STARLINK-3759           
1 52299U 22041AQ  22131.91667824 -.00009013  00000+0 -59684-4 0  9998
2 52299  53.2134 274.6669 0002238  22.9647  80.9367 15.73262396  1303
STARLINK-3769           
1 52300U 22041AR  22131.91667824 -.00011120  00000+0 -74891-4 0  9990
2 52300  53.2138 274.6614 0001997  26.6410  79.7316 15.73203126  1306
STARLINK-3768           
1 52301U 22041AS  22131.91667824  .00061672  00000+0  44147-3 0  9996
2 52301  53.2145 274.6678 0002119  30.0900  73.2864 15.73153168  1302
STARLINK-3564           
1 52302U 22041AT  22131.91667824  .00075157  00000+0  53535-3 0  9991
2 52302  53.2144 274.6575 0002045  16.4741  91.6958 15.73189579  4404
STARLINK-3742           
1 52303U 22041AU  22131.91667824 -.00003427  00000+0 -19969-4 0  9999
2 52303  53.2144 274.6630 0002215  18.7599  86.9470 15.73232382  1305
STARLINK-3744           
1 52304U 22041AV  22131.91667824  .00012464  00000+0  92910-4 0  9996
2 52304  53.2146 274.6563 0002279  27.4936  81.1589 15.73246019  1305
STARLINK-3724           
1 52305U 22041AW  22131.91667824  .00071082  00000+0  50679-3 0  9993
2 52305  53.2134 274.6605 0002140  26.9972  79.9530 15.73190027  1309
STARLINK-3747           
1 52306U 22041AX  22131.91667824 -.00044218  00000+0 -31267-3 0  9999
2 52306  53.2142 274.6543 0001915  29.4459  80.1999 15.73169562  1300
STARLINK-3755           
1 52307U 22041AY  22131.91667824  .00042704  00000+0  30716-3 0  9994
2 52307  53.2129 274.6595 0002184  28.6241  78.9016 15.73197174  1307
STARLINK-3745           
1 52308U 22041AZ  22131.91667824 -.00018440  00000+0 -12703-3 0  9993
2 52308  53.2146 274.6523 0001997  23.4604  87.0188 15.73237664  4410
STARLINK-3756           
1 52309U 22041BA  22131.91667824  .00072289  00000+0  51716-3 0  9990
2 52309  53.2146 274.6540 0002182  14.6411  95.5372 15.73103223  1302
STARLINK-3688           
1 52310U 22041BB  22131.91667824  .00038124  00000+0  27441-3 0  9990
2 52310  53.2147 274.6498 0002144  24.5756  87.0563 15.73233777  1303
STARLINK-3750           
1 52311U 22041BC  22131.91667824 -.00025327  00000+0 -17626-3 0  9998
2 52311  53.2129 274.6520 0002109  22.6103  88.4571 15.73238832  1307
STARLINK-3752           
1 52312U 22041BD  22131.91667824  .00031657  00000+0  22909-3 0  9990
2 52312  53.2138 274.6480 0002035  26.0957  86.1843 15.73202536  1305
STARLINK-3749           
1 52313U 22041BE  22131.91667824 -.00034467  00000+0 -24169-3 0  9995
2 52313  53.2131 274.6477 0001914  29.5145  83.4875 15.73242899  4413
FALCON 9 DEB            
1 52314U 22041BF  22131.77774289  .00276743  41628-4  64243-3 0  9990
2 52314  53.2061 273.1876 0016184 340.9247  19.1175 15.96411931  3206
